{
  "60437": {
    "noradId": "60437",
    "tle": [
      "1 60437C 24144N   25325.13381944 -.00028383  00000+0 -95654-3 0  3255",
      "2 60437  53.1594   1.2653 0001421  94.1386 141.4860 15.30222419    19"
    ]
  },
  "60438": {
    "noradId": "60438",
    "tle": [
      "1 60438C 24144P   25325.13659722 -.00004564  00000+0 -15388-3 0  3259",
      "2 60438  53.1593   1.2290 0001067  87.2129 175.4023 15.30184761    15"
    ]
  },
  "60439": {
    "noradId": "60439",
    "tle": [
      "1 60439C 24144Q   25325.13520833  .00001073  00000+0  36161-4 0  3253",
      "2 60439  53.1588   1.1527 0001282  90.6480 204.9973 15.30190344    15"
    ]
  },
  "60440": {
    "noradId": "60440",
    "tle": [
      "1 60440C 24144R   25325.13451389 -.00012053  00000+0 -40624-3 0  3254",
      "2 60440  53.1591   1.2033 0001531  90.5581 177.9915 15.30203884    11"
    ]
  },
  "60441": {
    "noradId": "60441",
    "tle": [
      "1 60441C 24144S   25325.13451389 -.00015960  00000+0 -53786-3 0  3258",
      "2 60441  53.1585   1.1210 0001334  93.9721 215.2816 15.30210366    14"
    ]
  },
  "60442": {
    "noradId": "60442",
    "tle": [
      "1 60442C 24144T   25325.12895833 -.00008737  00000+0 -29450-3 0  3259",
      "2 60442  53.1583   1.0766 0001789  89.5289 224.0146 15.30197594    13"
    ]
  },
  "60443": {
    "noradId": "60443",
    "tle": [
      "1 60443C 24144U   25325.13104167 -.00013160  00000+0 -44356-3 0  3252",
      "2 60443  53.1583   1.1030 0001488  93.4525 214.1169 15.30203931    10"
    ]
  },
  "60444": {
    "noradId": "60444",
    "tle": [
      "1 60444C 24144V   25325.12895833 -.00003913  00000+0 -13188-3 0  3253",
      "2 60444  53.1584   1.0078 0001577  92.4238 256.0198 15.30196333    16"
    ]
  },
  "60445": {
    "noradId": "60445",
    "tle": [
      "1 60445C 24144W   25325.13312500 -.00005126  00000+0 -17278-3 0  3252",
      "2 60445  53.1581   1.0231 0001216  81.6056 272.3557 15.30193057    13"
    ]
  },
  "60446": {
    "noradId": "60446",
    "tle": [
      "1 60446C 24144X   25325.13590278 -.00012801  00000+0 -43147-3 0  3255",
      "2 60446  53.1607 350.9286 0001367  82.6199 286.2822 15.30202780    18"
    ]
  },
  "60447": {
    "noradId": "60447",
    "tle": [
      "1 60447C 24144Y   25325.13451389 -.00008909  00000+0 -30028-3 0  3253",
      "2 60447  53.1581   1.0741 0001336  89.7287 242.8019 15.30197898    11"
    ]
  },
  "60583": {
    "noradId": "60583",
    "tle": [
      "1 60583C 24150A   25325.13451389 -.00038370  00000+0 -12938-2 0  3255",
      "2 60583  53.1578  90.9553 0001077  82.2126 339.0209 15.30216098    12"
    ]
  },
  "60584": {
    "noradId": "60584",
    "tle": [
      "1 60584C 24150B   25325.13312500 -.00005174  00000+0 -17436-3 0  3252",
      "2 60584  53.1596  91.2470 0002329  88.7575 179.3521 15.30201071    12"
    ]
  },
  "60585": {
    "noradId": "60585",
    "tle": [
      "1 60585C 24150C   25325.13312500 -.00002285  00000+0 -76996-4 0  3250",
      "2 60585  53.1581  91.5000 0001185  87.3499  52.8054 15.30196263    10"
    ]
  },
  "60586": {
    "noradId": "60586",
    "tle": [
      "1 60586C 24150D   25325.13243056 -.00020673  00000+0 -69672-3 0  3253",
      "2 60586  53.1590  91.1114 0001091  85.0310 249.0484 15.30213565    18"
    ]
  },
  "60587": {
    "noradId": "60587",
    "tle": [
      "1 60587C 24150E   25325.13381944 -.00012399  00000+0 -41786-3 0  3255",
      "2 60587  53.1590  91.3935 0000779  88.5182 107.7999 15.30207483    12"
    ]
  },
  "60588": {
    "noradId": "60588",
    "tle": [
      "1 60588C 24150F   25325.13104167 -.00009945  00000+0 -33520-3 0  3256",
      "2 60588  53.1578  91.0346 0001242  83.9093 283.2441 15.30199813    17"
    ]
  },
  "60589": {
    "noradId": "60589",
    "tle": [
      "1 60589C 24150G   25325.13451389 -.00012776  00000+0 -43067-3 0  3251",
      "2 60589  53.1579  91.6201 0001176  80.4339   3.4022 15.30199268    17"
    ]
  },
  "60590": {
    "noradId": "60590",
    "tle": [
      "1 60590C 24150H   25325.13520833 -.00011622  00000+0 -39171-3 0  3254",
      "2 60590  53.1595  91.1561 0001245  85.8710 234.4488 15.30202199    10"
    ]
  },
  "60591": {
    "noradId": "60591",
    "tle": [
      "1 60591C 24150J   25325.13173611 -.00001530  00000+0 -51574-4 0  3252",
      "2 60591  53.1581  91.5746 0001025  87.8378   9.7555 15.30196294    19"
    ]
  },
  "60592": {
    "noradId": "60592",
    "tle": [
      "1 60592C 24150K   25325.13173611 -.00010306  00000+0 -34735-3 0  3253",
      "2 60592  53.1597  91.3215 0001250  90.0090 135.5578 15.30202559    18"
    ]
  },
  "60593": {
    "noradId": "60593",
    "tle": [
      "1 60593C 24150L   25325.13590278 -.00012076  00000+0 -40704-3 0  3255",
      "2 60593  53.1593  91.1292 0001242  80.2514 255.5303 15.30201427    13"
    ]
  },
  "60594": {
    "noradId": "60594",
    "tle": [
      "1 60594C 24150M   25325.13312500  .00008150  00000+0  27467-3 0  3253",
      "2 60594  53.1578  90.9895 0001189  86.5370 309.5400 15.30182988    10"
    ]
  },
  "60595": {
    "noradId": "60595",
    "tle": [
      "1 60595C 24150N   25325.13104167  .00001029  00000+0  34680-4 0  3256",
      "2 60595  53.1582  91.4744 0000504  81.6405  64.5422 15.30175393    14"
    ]
  },
  "60596": {
    "noradId": "60596",
    "tle": [
      "1 60596C 24150P   25325.13312500 -.00004926  00000+0 -16609-3 0  3250",
      "2 60596  53.1582  91.0594 0001076  88.3286 272.8961 15.30185482    12"
    ]
  },
  "60597": {
    "noradId": "60597",
    "tle": [
      "1 60597C 24150Q   25325.13243056 -.00008089  00000+0 -27264-3 0  3253",
      "2 60597  53.1581  91.6056 0001190  85.5222 358.4669 15.30197768    13"
    ]
  },
  "60598": {
    "noradId": "60598",
    "tle": [
      "1 60598C 24150R   25325.13659722 -.00007413  00000+0 -24984-3 0  3251",
      "2 60598  53.1578  91.6206 0001125  82.8449   6.6559 15.30199003    10"
    ]
  },
  "60599": {
    "noradId": "60599",
    "tle": [
      "1 60599C 24150S   25325.13104167 -.00016750  00000+0 -56456-3 0  3253",
      "2 60599  53.1580  91.5426 0001222  88.2762  22.9513 15.30207226    11"
    ]
  },
  "60600": {
    "noradId": "60600",
    "tle": [
      "1 60600C 24150T   25325.13451389 -.00012102  00000+0 -40787-3 0  3254",
      "2 60600  53.1588  91.4117 0001223  87.5140 101.0118 15.30204051    14"
    ]
  },
  "60601": {
    "noradId": "60601",
    "tle": [
      "1 60601C 24150U   25325.13451389 -.00011932  00000+0 -40213-3 0  3259",
      "2 60601  53.1596  91.3420 0000949  83.8560 139.5688 15.30205975    13"
    ]
  },
  "60602": {
    "noradId": "60602",
    "tle": [
      "1 60602C 24150V   25325.13381944 -.00010452  00000+0 -35229-3 0  3256",
      "2 60602  53.1597  91.2076 0001268  91.5625 197.8431 15.30200926    18"
    ]
  },
  "60603": {
    "noradId": "60603",
    "tle": [
      "1 60603C 24150W   25325.13381944 -.00009827  00000+0 -33120-3 0  3259",
      "2 60603  53.1596  91.2766 0001274  85.7815 168.7166 15.30203283    18"
    ]
  },
  "60604": {
    "noradId": "60604",
    "tle": [
      "1 60604C 24150X   25325.13104167 -.00023015  00000+0 -77569-3 0  3250",
      "2 60604  53.1583  94.0221 0001192  87.4633 206.3429 15.30214389    18"
    ]
  },
  "60720": {
    "noradId": "60720",
    "tle": [
      "1 60720C 24152A   25325.15881944 -.00046798  00000+0 -38566-3 0  3255",
      "2 60720  53.1571 291.5943 0001077  83.7044 315.9498 15.69745986    13"
    ]
  },
  "60721": {
    "noradId": "60721",
    "tle": [
      "1 60721C 24152B   25325.15881944 -.00042342  00000+0 -34901-3 0  3256",
      "2 60721  53.1572 291.5376 0001081  89.5043 337.8995 15.69736574    11"
    ]
  },
  "60722": {
    "noradId": "60722",
    "tle": [
      "1 60722C 24152C   25325.15812500 -.00041820  00000+0 -34473-3 0  3253",
      "2 60722  53.1572 291.4842 0001141 101.3567 349.8595 15.69734289    10"
    ]
  },
  "60723": {
    "noradId": "60723",
    "tle": [
      "1 60723C 24152D   25325.15812500 -.00068157  00000+0 -56203-3 0  3251",
      "2 60723  53.1573 291.3704 0001174  91.2858  55.4383 15.69751911    10"
    ]
  },
  "60724": {
    "noradId": "60724",
    "tle": [
      "1 60724C 24152E   25325.15881944 -.00049083  00000+0 -40457-3 0  3251",
      "2 60724  53.1571 291.4243 0001156  87.3331  35.5376 15.69743259    17"
    ]
  },
  "60725": {
    "noradId": "60725",
    "tle": [
      "1 60725C 24152F   25325.16090278 -.00031406  00000+0 -25890-3 0  3259",
      "2 60725  53.1573 291.2997 0001097  84.7477 105.3914 15.69722883    14"
    ]
  },
  "60726": {
    "noradId": "60726",
    "tle": [
      "1 60726C 24152G   25325.15604167 -.00045310  00000+0 -37350-3 0  3250",
      "2 60726  53.1573 291.2663 0001149  88.3409 102.0413 15.69737447    18"
    ]
  },
  "60727": {
    "noradId": "60727",
    "tle": [
      "1 60727C 24152H   25325.15673611 -.00027362  00000+0 -22555-3 0  3259",
      "2 60727  53.1573 291.2059 0001159  75.7406 146.3123 15.69719956    10"
    ]
  },
  "60728": {
    "noradId": "60728",
    "tle": [
      "1 60728C 24152J   25325.15743056 -.00042859  00000+0 -35328-3 0  3251",
      "2 60728  53.1574 291.1456 0001014  91.8151 161.8879 15.69736034    14"
    ]
  },
  "60729": {
    "noradId": "60729",
    "tle": [
      "1 60729C 24152K   25325.15951389 -.00027522  00000+0 -22686-3 0  3255",
      "2 60729  53.1572 291.0673 0001212  81.7169 211.5234 15.69720721    14"
    ]
  },
  "60730": {
    "noradId": "60730",
    "tle": [
      "1 60730C 24152L   25325.15534722 -.00035891  00000+0 -29582-3 0  3255",
      "2 60730  53.1570 291.0424 0001254 106.0129 191.3856 15.69730505    17"
    ]
  },
  "60731": {
    "noradId": "60731",
    "tle": [
      "1 60731C 24152M   25325.15743056 -.00047499  00000+0 -39145-3 0  3251",
      "2 60731  53.1569 290.9752 0001211  85.7415 251.1691 15.69745233    18"
    ]
  }
}